NORAD_CAT_ID,OBJECT_NAME,OBJECT_TYPE,EPOCH,MEAN_MOTION,ECCENTRICITY,INCLINATION,RA_OF_ASC_NODE,ARG_OF_PERICENTER,MEAN_ANOMALY,BSTAR,MEAN_MOTION_DOT,MEAN_MOTION_DDOT,TLE_LINE0,TLE_LINE1,TLE_LINE2,SEMIMAJOR_AXIS,PERIOD,APOGEE,PERIGEE,DECAYED
55402.0,STARLINK-5071,PAYLOAD,2024-03-09 11:13:37,14.98321131,0.0002876,69.9986,105.6732,271.698,88.3849,0.00013335,1.498e-05,0.0,0 STARLINK-5071,1 55402U 23014M   24069.46779423  .00001498  00000-0  13335-3 0  9999,2 55402  69.9986 105.6732 0002876 271.6980  88.3849 14.98321131 61735,6950.22,96.108,574.084,570.086,0.0
55402.0,STARLINK-5071,PAYLOAD,2024-03-09 19:14:17,14.98350335,0.0003025,69.9987,104.8314,275.6858,84.3956,-0.00032648,-3.988e-05,0.0,0 STARLINK-5071,1 55402U 23014M   24069.80158644 -.00003988  00000-0 -32648-3 0  9999,2 55402  69.9987 104.8314 0003025 275.6858  84.3956 14.98350335 61786,6950.13,96.106,574.097,569.893,0.0
55402.0,STARLINK-5071,PAYLOAD,2024-03-10 03:14:57,14.98330711,0.0002848,69.9986,103.9898,270.5244,89.5589,6.689e-05,7.05e-06,0.0,0 STARLINK-5071,1 55402U 23014M   24070.13539190  .00000705  00000-0  66890-4 0  9995,2 55402  69.9986 103.9898 0002848 270.5244  89.5589 14.98330711 61838,6950.191,96.107,574.035,570.076,0.0
55402.0,STARLINK-5071,PAYLOAD,2024-03-10 11:15:38,14.98331138,0.0002864,69.9987,103.1483,269.9455,90.1376,6.411e-05,6.72e-06,0.0,0 STARLINK-5071,1 55402U 23014M   24070.46919148  .00000672  00000-0  64110-4 0  9992,2 55402  69.9987 103.1483 0002864 269.9455  90.1376 14.98331138 62821,6950.189,96.107,574.045,570.064,0.0
55402.0,STARLINK-5071,PAYLOAD,2024-03-11 04:53:06,14.98329617,0.0002865,69.9988,101.2967,269.9081,90.175,3.8724e-05,3.69e-06,0.0,0 STARLINK-5071,1 55402U 23014M   24071.20355282  .00000369  00000-0  38724-4 0  9993,2 55402  69.9988 101.2967 0002865 269.9081  90.1750 14.98329617 61996,6950.194,96.107,574.05,570.068,0.0
55402.0,STARLINK-5071,PAYLOAD,2024-03-11 11:17:38,14.98333738,0.0002854,69.9989,100.6234,269.4373,90.6459,6.7849e-05,7.17e-06,0.0,0 STARLINK-5071,1 55402U 23014M   24071.47058895  .00000717  00000-0  67849-4 0  9999,2 55402  69.9989 100.6234 0002854 269.4373  90.6459 14.98333738 62973,6950.181,96.107,574.03,570.063,0.0
55402.0,STARLINK-5071,PAYLOAD,2024-03-12 04:55:08,14.98327089,0.0002802,69.999,98.7718,269.3573,90.7265,-6.3391e-05,-8.49e-06,0.0,0 STARLINK-5071,1 55402U 23014M   24072.20495660 -.00000849  00000-0 -63391-4 0  9992,2 55402  69.9990  98.7718 0002802 269.3573  90.7265 14.98327089 62140,6950.202,96.107,574.014,570.119,0.0
55402.0,STARLINK-5071,PAYLOAD,2024-03-12 19:20:20,14.98329143,0.000287,69.9989,97.2556,270.5587,89.5243,-2.8883e-05,-4.38e-06,0.0,0 STARLINK-5071,1 55402U 23014M   24072.80579545 -.00000438  00000-0 -28883-4 0  9994,2 55402  69.9989  97.2556 0002870 270.5587  89.5243 14.98329143 63175,6950.196,96.107,574.055,570.066,0.0
55402.0,STARLINK-5071,PAYLOAD,2024-03-13 04:57:08,14.98332301,0.0002916,69.9986,96.2454,267.2719,92.8106,-1.4923e-05,-2.71e-06,0.0,0 STARLINK-5071,1 55402U 23014M   24073.20635276 -.00000271  00000-0 -14923-4 0  9998,2 55402  69.9986  96.2454 0002916 267.2719  92.8106 14.98332301 62296,6950.186,96.107,574.077,570.024,0.0
55402.0,STARLINK-5071,PAYLOAD,2024-03-13 11:21:41,14.98332934,0.0002929,69.9988,95.5727,268.595,91.4873,-4.6307e-06,-1.48e-06,0.0,0 STARLINK-5071,1 55402U 23014M   24073.47339191 -.00000148  00000-0 -46307-5 0  9999,2 55402  69.9988  95.5727 0002929 268.5950  91.4873 14.98332934 63275,6950.184,96.107,574.085,570.013,0.0
55402.0,STARLINK-5071,PAYLOAD,2024-03-14 04:59:09,14.98327666,0.0003003,69.9986,93.7212,268.4288,91.6528,7.7842e-05,8.36e-06,0.0,0 STARLINK-5071,1 55402U 23014M   24074.20775282  .00000836  00000-0  77842-4 0  9995,2 55402  69.9986  93.7212 0003003 268.4288  91.6528 14.98327666 62442,6950.2,96.107,574.152,569.978,0.0
55402.0,STARLINK-5071,PAYLOAD,2024-03-14 06:35:17,14.98327791,0.0003003,69.9986,93.5529,268.4344,91.6471,7.7603e-05,8.33e-06,0.0,0 STARLINK-5071,1 55402U 23014M   24074.27451284  .00000833  00000-0  77603-4 0  9997,2 55402  69.9986  93.5529 0003003 268.4344  91.6471 14.98327791 63395,6950.2,96.107,574.152,569.978,0.0
55402.0,STARLINK-5071,PAYLOAD,2024-03-14 11:23:41,14.98329914,0.0003009,69.9986,93.0479,268.6275,91.4539,8.0053e-05,8.62e-06,0.0,0 STARLINK-5071,1 55402U 23014M   24074.47479144  .00000862  00000-0  80053-4 0  9999,2 55402  69.9986  93.0479 0003009 268.6275  91.4539 14.98329914 63421,6950.193,96.107,574.149,569.967,0.0
55402.0,STARLINK-5071,PAYLOAD,2024-03-15 05:01:10,14.98330863,0.0002909,69.9988,91.1961,269.1634,90.9192,-2.276e-06,-1.2e-06,0.0,0 STARLINK-5071,1 55402U 23014M   24075.20915317 -.00000120  00000-0 -22760-5 0  9999,2 55402  69.9988  91.1961 0002909 269.1634  90.9192 14.98330863 62592,6950.19,96.107,574.077,570.033,0.0
55402.0,STARLINK-5071,PAYLOAD,2024-03-15 11:25:43,14.98330681,0.0002866,69.999,90.5232,268.4751,91.6079,1.0253e-05,2.9e-07,0.0,0 STARLINK-5071,1 55402U 23014M   24075.47619279  .00000029  00000-0  10253-4 0  9995,2 55402  69.9990  90.5232 0002866 268.4751  91.6079 14.98330681 63572,6950.191,96.107,574.048,570.064,0.0
55402.0,STARLINK-5071,PAYLOAD,2024-03-16 05:03:10,14.98344704,0.0003091,69.9984,88.6713,271.6529,88.4276,0.00012087,1.35e-05,0.0,0 STARLINK-5071,1 55402U 23014M   24076.21053661  .00001350  00000-0  12087-3 0  9999,2 55402  69.9984  88.6713 0003091 271.6529  88.4276 14.98344704 62749,6950.147,96.106,574.161,569.864,0.0
55402.0,STARLINK-5071,PAYLOAD,2024-03-16 09:51:34,14.98348693,0.0003002,69.9986,88.1662,271.0086,89.0729,0.00016579,1.887e-05,0.0,0 STARLINK-5071,1 55402U 23014M   24076.41081080  .00001887  00000-0  16579-3 0  9992,2 55402  69.9986  88.1662 0003002 271.0086  89.0729 14.98348693 63712,6950.135,96.106,574.087,569.914,0.0
55402.0,STARLINK-5071,PAYLOAD,2024-03-17 05:05:12,14.98326656,0.0003085,69.9989,86.1467,266.2853,93.7953,-5.0843e-05,-7e-06,0.0,0 STARLINK-5071,1 55402U 23014M   24077.21194774 -.00000700  00000-0 -50843-4 0  9994,2 55402  69.9989  86.1467 0003085 266.2853  93.7953 14.98326656 62899,6950.203,96.107,574.212,569.924,0.0
55402.0,STARLINK-5071,PAYLOAD,2024-03-17 09:53:36,14.9832366,0.0003303,69.9981,85.6408,269.9269,90.1512,-0.00010116,-1.3e-05,0.0,0 STARLINK-5071,1 55402U 23014M   24077.41223132 -.00001300  00000-0 -10116-3 0  9992,2 55402  69.9981  85.6408 0003303 269.9269  90.1512 14.98323660 63866,6950.212,96.107,574.373,569.782,0.0
55402.0,STARLINK-5071,PAYLOAD,2024-03-18 05:07:13,14.98330844,0.0003086,69.9986,83.6209,266.3871,93.6935,-0.00018415,-2.29e-05,0.0,0 STARLINK-5071,1 55402U 23014M   24078.21335043 -.00002290  00000-0 -18415-3 0  9995,2 55402  69.9986  83.6209 0003086 266.3871  93.6935 14.98330844 63045,6950.19,96.107,574.2,569.91,0.0
55402.0,STARLINK-5071,PAYLOAD,2024-03-18 09:55:37,14.98332117,0.000318,69.9985,83.1159,267.72,92.3595,-0.00015759,-1.973e-05,0.0,0 STARLINK-5071,1 55402U 23014M   24078.41362900 -.00001973  00000-0 -15759-3 0  9994,2 55402  69.9985  83.1159 0003180 267.7200  92.3595 14.98332117 64010,6950.186,96.107,574.262,569.841,0.0
55402.0,STARLINK-5071,PAYLOAD,2024-03-19 09:57:38,14.98323869,0.0003046,69.999,80.591,264.3624,95.7188,0.00014,1.578e-05,0.0,0 STARLINK-5071,1 55402U 23014M   24079.41502991  .00001578  00000-0  14000-3 0  9998,2 55402  69.9990  80.5910 0003046 264.3624  95.7188 14.98323869 63227,6950.212,96.107,574.194,569.96,0.0
55402.0,STARLINK-5071,PAYLOAD,2024-03-20 09:59:39,14.98328833,0.0003003,69.9992,78.0663,264.3871,95.6946,9.4795e-05,1.038e-05,0.0,0 STARLINK-5071,1 55402U 23014M   24080.41643116  .00001038  00000-0  94795-4 0  9996,2 55402  69.9992  78.0663 0003003 264.3871  95.6946 14.98328833 63376,6950.196,96.107,574.149,569.974,0.0
55402.0,STARLINK-5071,PAYLOAD,2024-03-21 10:01:40,14.98335843,0.0002952,69.9994,75.5415,267.2459,92.8362,7.8689e-05,8.46e-06,0.0,0 STARLINK-5071,1 55402U 23014M   24081.41782663  .00000846  00000-0  78689-4 0  9998,2 55402  69.9994  75.5415 0002952 267.2459  92.8362 14.98335843 63528,6950.175,96.107,574.092,569.988,0.0
55402.0,STARLINK-5071,PAYLOAD,2024-03-22 08:27:32,14.98336136,0.0002817,69.9996,73.1847,263.8206,96.2632,8.1449e-05,8.79e-06,0.0,0 STARLINK-5071,1 55402U 23014M   24082.35246371  .00000879  00000-0  81449-4 0  9997,2 55402  69.9996  73.1847 0002817 263.8206  96.2632 14.98336136 64609,6950.174,96.107,573.997,570.081,0.0
55402.0,STARLINK-5071,PAYLOAD,2024-03-23 03:41:10,14.9832706,0.000264,70.0001,71.1652,256.2878,103.7987,-4.3219e-05,-6.09e-06,0.0,0 STARLINK-5071,1 55402U 23014M   24083.15359196 -.00000609  00000-0 -43219-4 0  9992,2 55402  70.0001  71.1652 0002640 256.2878 103.7987 14.98327060 63787,6950.202,96.107,573.902,570.232,0.0
55402.0,STARLINK-5071,PAYLOAD,2024-03-23 08:29:34,14.98324952,0.0002771,69.9999,70.6596,267.5109,92.5733,-7.4811e-05,-9.85e-06,0.0,0 STARLINK-5071,1 55402U 23014M   24083.35387510 -.00000985  00000-0 -74811-4 0  9994,2 55402  69.9999  70.6596 0002771 267.5109  92.5733 14.98324952 64757,6950.209,96.107,573.999,570.148,0.0
55402.0,STARLINK-5071,PAYLOAD,2024-03-24 05:19:18,14.98339908,0.0002969,69.9995,68.4713,267.1905,92.8914,6.0834e-05,6.33e-06,0.0,0 STARLINK-5071,1 55402U 23014M   24084.22174068  .00000633  00000-0  60834-4 0  9991,2 55402  69.9995  68.4713 0002969 267.1905  92.8914 14.98339908 63949,6950.162,96.106,574.091,569.964,0.0
55402.0,STARLINK-5071,PAYLOAD,2024-03-24 08:31:34,14.98341941,0.0002923,69.9998,68.1352,268.0175,92.065,8.6963e-05,9.45e-06,0.0,0 STARLINK-5071,1 55402U 23014M   24084.35525818  .00000945  00000-0  86963-4 0  9995,2 55402  69.9998  68.1352 0002923 268.0175  92.0650 14.98341941 64903,6950.156,96.106,574.052,569.989,0.0
55402.0,STARLINK-5071,PAYLOAD,2024-03-24 22:56:47,14.98327389,0.0002712,70.0006,66.6212,265.7264,94.3586,9.2468e-05,1.01e-05,0.0,0 STARLINK-5071,1 55402U 23014M   24084.95610920  .00001010  00000-0  92468-4 0  9991,2 55402  70.0006  66.6212 0002712 265.7264  94.3586 14.98327389 64995,6950.201,96.107,573.951,570.181,0.0
